{
  "norad_id": 47772,
  "name": "STARLINK-2195",
  "history": [
    {
      "epoch": "2026-03-28T12:32:11.467680Z",
      "apogee_km": 476.15269260586774,
      "perigee_km": 474.3113294199893,
      "latitude_deg": -4.27964619956014e-05,
      "longitude_deg": 115.81159380356988,
      "height_km": 476.0934127165603,
      "semi_major_axis_km": 6853.369011012928,
      "eccentricity": 0.00013434,
      "inclination_deg": 53.1602,
      "raan_deg": 129.801,
      "arg_perigee_deg": 87.7217,
      "mean_anomaly_deg": 272.3937,
      "mean_motion_rev_day": 15.30194326
    }
  ]
}